H1 CPF 01  gfz 2022 06 22 12  6732 tandemx   
H2 1003001  6202 36605    2022 06 22 12 59 42 2022 06 27 00 00 42   120 1 1  0 0 0
H9
10 0 59754  39582.000000  0     -53744.064  -2880195.182  -6264636.313
10 0 59754  39702.000000  0    -338518.360  -2062485.274  -6570973.954
10 0 59754  39822.000000  0    -602762.263  -1204246.617  -6762681.752
10 0 59754  39942.000000  0    -841327.325   -320758.130  -6836464.215
10 0 59754  40062.000000  0   -1049781.475    572194.773  -6791054.978
10 0 59754  40182.000000  0   -1224489.004   1458594.864  -6627235.193
10 0 59754  40302.000000  0   -1362672.529   2322473.019  -6347821.357
10 0 59754  40422.000000  0   -1462456.328   3148188.749  -5957623.108
10 0 59754  40542.000000  0   -1522891.175   3920710.293  -5463370.036
10 0 59754  40662.000000  0   -1543959.192   4625887.520  -4873606.501
10 0 59754  40782.000000  0   -1526559.496   5250715.071  -4198555.695
10 0 59754  40902.000000  0   -1472474.029   5783579.250  -3449951.874
10 0 59754  41022.000000  0   -1384313.585   6214482.609  -2640844.061
10 0 59754  41142.000000  0   -1265445.567   6535242.825  -1785374.357
10 0 59754  41262.000000  0   -1119904.484   6739660.223   -898531.638
10 0 59754  41382.000000  0    -952287.286   6823648.090      4112.629
10 0 59754  41502.000000  0    -767635.463   6785324.469    906683.209
10 0 59754  41622.000000  0    -571307.022   6625059.328   1793290.216
10 0 59754  41742.000000  0    -368841.860   6345473.238   2648319.310
10 0 59754  41862.000000  0    -165824.247   5951390.644   3456713.743
10 0 59754  41982.000000  0      32253.932   5449751.396   4204244.578
10 0 59754  42102.000000  0     220126.035   4849482.625   4877767.635
10 0 59754  42222.000000  0     392877.619   4161325.052   5465456.753
10 0 59754  42342.000000  0     546062.867   3397631.992   5957005.571
10 0 59754  42462.000000  0     675808.303   2572140.025   6343805.782
10 0 59754  42582.000000  0     778901.154   1699714.833   6619091.779
10 0 59754  42702.000000  0     852861.738    796079.220   6778053.254
10 0 59754  42822.000000  0     895998.197   -122472.001   6817913.314
10 0 59754  42942.000000  0     907442.771  -1039364.576   6737974.569
10 0 59754  43062.000000  0     887168.823  -1938043.912   6539631.540
10 0 59754  43182.000000  0     835988.417  -2802273.843   6226348.326
10 0 59754  43302.000000  0     755530.326  -3616432.096   5803601.623
10 0 59754  43422.000000  0     648198.746  -4365794.342   5278788.033
10 0 59754  43542.000000  0     517115.101  -5036803.342   4661100.996
10 0 59754  43662.000000  0     366042.748  -5617321.469   3961376.947
10 0 59754  43782.000000  0     199294.993  -6096860.901   3191909.052
10 0 59754  43902.000000  0      21629.015  -6466783.706   2366231.961
10 0 59754  44022.000000  0    -161872.067  -6720466.562   1498881.446
10 0 59754  44142.000000  0    -345925.764  -6853428.285    605135.151
10 0 59754  44262.000000  0    -525183.023  -6863415.992   -299265.182
10 0 59754  44382.000000  0    -694363.154  -6750443.783  -1198401.182
10 0 59754  44502.000000  0    -848386.820  -6516785.026  -2076466.805
10 0 59754  44622.000000  0    -982504.352  -6166920.543  -2918052.818
10 0 59754  44742.000000  0   -1092416.557  -5707443.763  -3708422.459
10 0 59754  44862.000000  0   -1174384.674  -5146924.414  -4433771.794
10 0 59754  44982.000000  0   -1225326.544  -4495735.390  -5081468.194
10 0 59754  45102.000000  0   -1242897.393  -3765849.402  -5640263.746
10 0 59754  45222.000000  0   -1225553.443  -2970609.907  -6100481.667
10 0 59754  45342.000000  0   -1172597.314  -2124480.953  -6454173.390
10 0 59754  45462.000000  0   -1084204.784  -1242781.335  -6695244.023
10 0 59754  45582.000000  0    -961432.988   -341408.963  -6819546.659
10 0 59754  45702.000000  0    -806209.600    563441.429  -6824945.708
10 0 59754  45822.000000  0    -621302.565   1455561.950  -6711348.621
10 0 59754  45942.000000  0    -410272.180   2319014.079  -6480707.209
10 0 59754  46062.000000  0    -177405.834   3138406.398  -6136988.762
10 0 59754  46182.000000  0      72365.222   3899165.778  -5686116.418
10 0 59754  46302.000000  0     333565.195   4587795.769  -5135876.481
10 0 59754  46422.000000  0     600286.876   5192118.671  -4495795.856
10 0 59754  46542.000000  0     866317.582   5701498.449  -3776988.198
10 0 59754  46662.000000  0    1125275.574   6107037.757  -2991969.756
10 0 59754  46782.000000  0    1370753.871   6401745.216  -2154447.997
10 0 59754  46902.000000  0    1596468.633   6580668.913  -1279084.884
10 0 59754  47022.000000  0    1796408.597   6640991.426   -381238.500
10 0 59754  47142.000000  0    1964981.418   6582082.273    523311.812
10 0 59754  47262.000000  0    2097152.554   6405506.603   1418649.741
10 0 59754  47382.000000  0    2188573.981   6114990.404   2289009.951
10 0 59754  47502.000000  0    2235699.119   5716342.327   3119063.652
10 0 59754  47622.000000  0    2235881.401   5217334.911   3894196.128
10 0 59754  47742.000000  0    2187452.795   4627546.901   4600770.640
10 0 59754  47862.000000  0    2089780.868   3958169.261   5226372.716
10 0 59754  47982.000000  0    1943302.658   3221781.579   5760025.398
10 0 59754  48102.000000  0    1749536.989   2432109.356   6192377.426
10 0 59754  48222.000000  0    1511073.567   1603762.320   6515863.113
10 0 59754  48342.000000  0    1231539.028    751958.899   6724828.717
10 0 59754  48462.000000  0     915541.286   -107755.019   6815624.109
10 0 59754  48582.000000  0     568593.442   -959788.358   6786663.413
10 0 59754  48702.000000  0     197017.348  -1788787.994   6638452.197
10 0 59754  48822.000000  0    -192171.795  -2579915.372   6373579.021
10 0 59754  48942.000000  0    -591397.466  -3319113.301   5996672.241
10 0 59754  49062.000000  0    -992666.919  -3993356.449   5514321.640
10 0 59754  49182.000000  0   -1387728.086  -4590882.782   4934970.251
10 0 59754  49302.000000  0   -1768238.096  -5101405.625   4268775.228
10 0 59754  49422.000000  0   -2125938.769  -5516300.814   3527434.736
10 0 59754  49542.000000  0   -2452834.751  -5828761.681   2723983.304
10 0 59754  49662.000000  0   -2741369.803  -6033917.756   1872561.305
10 0 59754  49782.000000  0   -2984597.193  -6128916.451    988162.523
10 0 59754  49902.000000  0   -3176340.108  -6112964.914     86363.833
10 0 59754  50022.000000  0   -3311337.848  -5987330.453   -816957.186
10 0 59754  50142.000000  0   -3385374.192  -5755299.248  -1705910.942
10 0 59754  50262.000000  0   -3395384.559  -5422093.911  -2564883.931
10 0 59754  50382.000000  0   -3339539.314  -4994752.556  -3378819.771
10 0 59754  50502.000000  0   -3217300.636  -4481972.663  -4133486.633
10 0 59754  50622.000000  0   -3029452.335  -3893925.485  -4815724.919
10 0 59754  50742.000000  0   -2778103.163  -3242046.363  -5413671.954
10 0 59754  50862.000000  0   -2466664.166  -2538805.627  -5916960.284
10 0 59754  50982.000000  0   -2099800.572  -1797465.776  -6316887.570
10 0 59754  51102.000000  0   -1683358.705  -1031829.414  -6606556.194
10 0 59754  51222.000000  0   -1224270.823   -255983.231  -6780980.177
10 0 59754  51342.000000  0    -730440.463    515956.730  -6837160.587
10 0 59754  51462.000000  0    -210608.515   1270095.175  -6774131.518
10 0 59754  51582.000000  0     325797.477   1993000.995  -6592974.452
10 0 59754  51702.000000  0     868828.885   2671940.537  -6296803.643
10 0 59754  51822.000000  0    1408197.131   3295099.091  -5890719.262
10 0 59754  51942.000000  0    1933464.131   3851785.612  -5381727.734
10 0 59754  52062.000000  0    2434241.033   4332617.590  -4778632.137
10 0 59754  52182.000000  0    2900391.999   4729684.565  -4091891.641
10 0 59754  52302.000000  0    3322238.777   5036686.091  -3333449.870
10 0 59754  52422.000000  0    3690762.545   5249040.508  -2516535.204
10 0 59754  52542.000000  0    3997798.596   5363961.430  -1655433.818
10 0 59754  52662.000000  0    4236217.653   5380499.578   -765240.462
10 0 59754  52782.000000  0    4400089.925   5299548.977    138409.776
10 0 59754  52902.000000  0    4484827.359   5123814.733   1039622.745
10 0 59754  53022.000000  0    4487298.534   4857743.854   1922532.084
10 0 59754  53142.000000  0    4405916.434   4507423.593   2771586.200
10 0 59754  53262.000000  0    4240694.491   4080444.931   3571832.652
10 0 59754  53382.000000  0    3993267.614   3585736.273   4309187.650
10 0 59754  53502.000000  0    3666881.962   3033372.900   4970686.433
10 0 59754  53622.000000  0    3266352.204   2434367.711   5544714.225
10 0 59754  53742.000000  0    2797984.232   1800445.543   6021206.904
10 0 59754  53862.000000  0    2269472.011   1143810.166   6391821.867
10 0 59754  53982.000000  0    1689767.240    476906.317   6650077.905
10 0 59754  54102.000000  0    1068924.671   -187815.776   6791462.315
10 0 59754  54222.000000  0     417926.098   -838132.026   6813506.505
10 0 59754  54342.000000  0    -251514.591  -1462269.813   6715826.374
10 0 59754  54462.000000  0    -927162.333  -2049120.857   6500128.055
10 0 59754  54582.000000  0   -1596483.920  -2588439.017   6170178.481
10 0 59754  54702.000000  0   -2246877.968  -3071019.080   5731743.337
10 0 59754  54822.000000  0   -2865911.813  -3488856.618   5192494.426
10 0 59754  54942.000000  0   -3441563.215  -3835285.644   4561882.298
10 0 59754  55062.000000  0   -3962458.420  -4105088.986   3850974.260
10 0 59754  55182.000000  0   -4418100.702  -4294580.346   3072262.784
10 0 59754  55302.000000  0   -4799086.094  -4401656.656   2239447.457
10 0 59754  55422.000000  0   -5097302.294  -4425819.381   1367191.820
10 0 59754  55542.000000  0   -5306103.908  -4368162.099    470859.576
10 0 59754  55662.000000  0   -5420459.991  -4231325.538   -433763.384
10 0 59754  55782.000000  0   -5437070.002  -4019421.050  -1330756.018
10 0 59754  55902.000000  0   -5354444.363  -3737923.665  -2204352.419
10 0 59754  56022.000000  0   -5172946.789  -3393537.400  -3039226.478
99
